[{"OBJECT_NAME":"ISS (ZARYA)","OBJECT_ID":"1998-067A","EPOCH":"2026-04-25T14:51:50.575968","MEAN_MOTION":15.48952974,"ECCENTRICITY":0.0006949,"INCLINATION":51.632,"RA_OF_ASC_NODE":200.2872,"ARG_OF_PERICENTER":349.7097,"MEAN_ANOMALY":10.3748,"EPHEMERIS_TYPE":0,"CLASSIFICATION_TYPE":"U","NORAD_CAT_ID":25544,"ELEMENT_SET_NO":999,"REV_AT_EPOCH":56360,"BSTAR":0.00019457,"MEAN_MOTION_DOT":0.00010271,"MEAN_MOTION_DDOT":0},{"OBJECT_NAME":"POISK","OBJECT_ID":"2009-060A","EPOCH":"2026-04-25T14:51:50.575968","MEAN_MOTION":15.48952974,"ECCENTRICITY":0.0006949,"INCLINATION":51.632,"RA_OF_ASC_NODE":200.2872,"ARG_OF_PERICENTER":349.7097,"MEAN_ANOMALY":10.3748,"EPHEMERIS_TYPE":0,"CLASSIFICATION_TYPE":"U","NORAD_CAT_ID":36086,"ELEMENT_SET_NO":999,"REV_AT_EPOCH":56360,"BSTAR":0.00019457,"MEAN_MOTION_DOT":0.00010271,"MEAN_MOTION_DDOT":0},{"OBJECT_NAME":"CSS (TIANHE)","OBJECT_ID":"2021-035A","EPOCH":"2026-04-25T20:13:12.500256","MEAN_MOTION":15.62957511,"ECCENTRICITY":0.0006838,"INCLINATION":41.467,"RA_OF_ASC_NODE":280.7595,"ARG_OF_PERICENTER":273.8055,"MEAN_ANOMALY":86.2003,"EPHEMERIS_TYPE":0,"CLASSIFICATION_TYPE":"U","NORAD_CAT_ID":48274,"ELEMENT_SET_NO":999,"REV_AT_EPOCH":28498,"BSTAR":0.0003188,"MEAN_MOTION_DOT":0.00029528,"MEAN_MOTION_DDOT":0},{"OBJECT_NAME":"ISS (NAUKA)","OBJECT_ID":"2021-066A","EPOCH":"2026-04-25T14:51:50.575968","MEAN_MOTION":15.48952974,"ECCENTRICITY":0.0006949,"INCLINATION":51.632,"RA_OF_ASC_NODE":200.2872,"ARG_OF_PERICENTER":349.7097,"MEAN_ANOMALY":10.3748,"EPHEMERIS_TYPE":0,"CLASSIFICATION_TYPE":"U","NORAD_CAT_ID":49044,"ELEMENT_SET_NO":999,"REV_AT_EPOCH":56364,"BSTAR":0.00019457,"MEAN_MOTION_DOT":0.00010271,"MEAN_MOTION_DDOT":0},{"OBJECT_NAME":"FREGAT DEB","OBJECT_ID":"2011-037PF","EPOCH":"2026-04-25T11:37:52.584096","MEAN_MOTION":12.41059581,"ECCENTRICITY":0.094057,"INCLINATION":51.6455,"RA_OF_ASC_NODE":160.2244,"ARG_OF_PERICENTER":166.6488,"MEAN_ANOMALY":196.1217,"EPHEMERIS_TYPE":0,"CLASSIFICATION_TYPE":"U","NORAD_CAT_ID":49271,"ELEMENT_SET_NO":999,"REV_AT_EPOCH":21850,"BSTAR":0.011304,"MEAN_MOTION_DOT":7.383e-5,"MEAN_MOTION_DDOT":0},{"OBJECT_NAME":"CSS (WENTIAN)","OBJECT_ID":"2022-085A","EPOCH":"2026-04-24T22:45:00.517824","MEAN_MOTION":15.62906639,"ECCENTRICITY":0.00068165,"INCLINATION":41.467,"RA_OF_ASC_NODE":286.2208,"ARG_OF_PERICENTER":268.4201,"MEAN_ANOMALY":91.5858,"EPHEMERIS_TYPE":0,"CLASSIFICATION_TYPE":"U","NORAD_CAT_ID":53239,"ELEMENT_SET_NO":999,"REV_AT_EPOCH":28313,"BSTAR":0.00028753318,"MEAN_MOTION_DOT":0.00026533,"MEAN_MOTION_DDOT":0},{"OBJECT_NAME":"CSS (MENGTIAN)","OBJECT_ID":"2022-143A","EPOCH":"2026-04-25T20:13:12.500256","MEAN_MOTION":15.62957511,"ECCENTRICITY":0.0006838,"INCLINATION":41.467,"RA_OF_ASC_NODE":280.7595,"ARG_OF_PERICENTER":273.8055,"MEAN_ANOMALY":86.2003,"EPHEMERIS_TYPE":0,"CLASSIFICATION_TYPE":"U","NORAD_CAT_ID":54216,"ELEMENT_SET_NO":999,"REV_AT_EPOCH":28504,"BSTAR":0.0003188,"MEAN_MOTION_DOT":0.00029528,"MEAN_MOTION_DDOT":0},{"OBJECT_NAME":"TIANZHOU-9","OBJECT_ID":"2025-149A","EPOCH":"2026-04-25T20:13:12.500256","MEAN_MOTION":15.62957511,"ECCENTRICITY":0.0006838,"INCLINATION":41.467,"RA_OF_ASC_NODE":280.7595,"ARG_OF_PERICENTER":273.8055,"MEAN_ANOMALY":86.2003,"EPHEMERIS_TYPE":0,"CLASSIFICATION_TYPE":"U","NORAD_CAT_ID":64786,"ELEMENT_SET_NO":999,"REV_AT_EPOCH":28505,"BSTAR":0.0003188,"MEAN_MOTION_DOT":0.00029528,"MEAN_MOTION_DDOT":0},{"OBJECT_NAME":"HRC MONOBLOCK CAMERA","OBJECT_ID":"1998-067XR","EPOCH":"2026-04-25T13:48:57.570048","MEAN_MOTION":15.67324407,"ECCENTRICITY":0.0004754,"INCLINATION":51.6264,"RA_OF_ASC_NODE":187.9788,"ARG_OF_PERICENTER":333.5685,"MEAN_ANOMALY":26.5068,"EPHEMERIS_TYPE":0,"CLASSIFICATION_TYPE":"U","NORAD_CAT_ID":66052,"ELEMENT_SET_NO":999,"REV_AT_EPOCH":2973,"BSTAR":0.00046733,"MEAN_MOTION_DOT":0.00051186,"MEAN_MOTION_DDOT":0},{"OBJECT_NAME":"HTV-X1","OBJECT_ID":"2025-241A","EPOCH":"2026-04-22T23:48:46.558656","MEAN_MOTION":15.32728944,"ECCENTRICITY":0.00078219,"INCLINATION":51.6353,"RA_OF_ASC_NODE":219.4042,"ARG_OF_PERICENTER":344.1053,"MEAN_ANOMALY":15.9682,"EPHEMERIS_TYPE":0,"CLASSIFICATION_TYPE":"U","NORAD_CAT_ID":66174,"ELEMENT_SET_NO":999,"REV_AT_EPOCH":2773,"BSTAR":0.00014900059,"MEAN_MOTION_DOT":4.413e-5,"MEAN_MOTION_DDOT":0},{"OBJECT_NAME":"SZ-21 MODULE","OBJECT_ID":"2025-246C","EPOCH":"2026-04-24T17:37:21.379008","MEAN_MOTION":15.7208763,"ECCENTRICITY":0.0004099,"INCLINATION":41.473,"RA_OF_ASC_NODE":279.1403,"ARG_OF_PERICENTER":320.8652,"MEAN_ANOMALY":39.1894,"EPHEMERIS_TYPE":0,"CLASSIFICATION_TYPE":"U","NORAD_CAT_ID":66515,"ELEMENT_SET_NO":999,"REV_AT_EPOCH":2531,"BSTAR":0.00025921604,"MEAN_MOTION_DOT":0.00034872,"MEAN_MOTION_DDOT":0},{"OBJECT_NAME":"SHENZHOU-22","OBJECT_ID":"2025-272A","EPOCH":"2026-04-25T20:13:12.500256","MEAN_MOTION":15.62957511,"ECCENTRICITY":0.0006838,"INCLINATION":41.467,"RA_OF_ASC_NODE":280.7595,"ARG_OF_PERICENTER":273.8055,"MEAN_ANOMALY":86.2003,"EPHEMERIS_TYPE":0,"CLASSIFICATION_TYPE":"U","NORAD_CAT_ID":66645,"ELEMENT_SET_NO":999,"REV_AT_EPOCH":28506,"BSTAR":0.0003188,"MEAN_MOTION_DOT":0.00029528,"MEAN_MOTION_DDOT":0},{"OBJECT_NAME":"SOYUZ-MS 28","OBJECT_ID":"2025-275A","EPOCH":"2026-04-25T14:51:50.575968","MEAN_MOTION":15.48952974,"ECCENTRICITY":0.0006949,"INCLINATION":51.632,"RA_OF_ASC_NODE":200.2872,"ARG_OF_PERICENTER":349.7097,"MEAN_ANOMALY":10.3748,"EPHEMERIS_TYPE":0,"CLASSIFICATION_TYPE":"U","NORAD_CAT_ID":66664,"ELEMENT_SET_NO":999,"REV_AT_EPOCH":56388,"BSTAR":0.00019457,"MEAN_MOTION_DOT":0.00010271,"MEAN_MOTION_DDOT":0},{"OBJECT_NAME":"DUPLEX","OBJECT_ID":"1998-067XS","EPOCH":"2026-04-25T11:33:45.358272","MEAN_MOTION":15.59125048,"ECCENTRICITY":0.0004752,"INCLINATION":51.6278,"RA_OF_ASC_NODE":194.8674,"ARG_OF_PERICENTER":341.692,"MEAN_ANOMALY":18.3901,"EPHEMERIS_TYPE":0,"CLASSIFICATION_TYPE":"U","NORAD_CAT_ID":66906,"ELEMENT_SET_NO":999,"REV_AT_EPOCH":2242,"BSTAR":0.00041451,"MEAN_MOTION_DOT":0.00032683,"MEAN_MOTION_DDOT":0},{"OBJECT_NAME":"ISS OBJECT XT","OBJECT_ID":"1998-067XT","EPOCH":"2026-04-25T05:03:50.939136","MEAN_MOTION":15.93737801,"ECCENTRICITY":0.0012238,"INCLINATION":51.6169,"RA_OF_ASC_NODE":184.6881,"ARG_OF_PERICENTER":356.6969,"MEAN_ANOMALY":3.3955,"EPHEMERIS_TYPE":0,"CLASSIFICATION_TYPE":"U","NORAD_CAT_ID":66907,"ELEMENT_SET_NO":999,"REV_AT_EPOCH":2253,"BSTAR":0.00148,"MEAN_MOTION_DOT":0.00552345,"MEAN_MOTION_DDOT":0.00013367},{"OBJECT_NAME":"ISS OBJECT XU","OBJECT_ID":"1998-067XU","EPOCH":"2026-04-25T13:48:51.424416","MEAN_MOTION":15.94888468,"ECCENTRICITY":0.0011733,"INCLINATION":51.6177,"RA_OF_ASC_NODE":182.6134,"ARG_OF_PERICENTER":356.6262,"MEAN_ANOMALY":3.4664,"EPHEMERIS_TYPE":0,"CLASSIFICATION_TYPE":"U","NORAD_CAT_ID":66908,"ELEMENT_SET_NO":999,"REV_AT_EPOCH":2259,"BSTAR":0.0013776,"MEAN_MOTION_DOT":0.00546499,"MEAN_MOTION_DDOT":0.00013284}]
